[{"OBJECT_NAME":"LAPAN-A3","OBJECT_ID":"2016-040E","EPOCH":"2026-03-09T23:01:57.724896","MEAN_MOTION":15.3238951,"ECCENTRICITY":0.00109839,"INCLINATION":97.1488,"RA_OF_ASC_NODE":68.4254,"ARG_OF_PERICENTER":22.062,"MEAN_ANOMALY":338.1093,"EPHEMERIS_TYPE":0,"CLASSIFICATION_TYPE":"U","NORAD_CAT_ID":41603,"ELEMENT_SET_NO":999,"REV_AT_EPOCH":53961,"BSTAR":0.00017567445,"MEAN_MOTION_DOT":5.428e-5,"MEAN_MOTION_DDOT":0},{"OBJECT_NAME":"STARLINK-30400","OBJECT_ID":"2023-148C","EPOCH":"2026-03-09T04:05:01.415328","MEAN_MOTION":15.30192178,"ECCENTRICITY":0.00010965,"INCLINATION":53.1615,"RA_OF_ASC_NODE":26.6044,"ARG_OF_PERICENTER":73.1298,"MEAN_ANOMALY":286.9823,"EPHEMERIS_TYPE":0,"CLASSIFICATION_TYPE":"U","NORAD_CAT_ID":57937,"ELEMENT_SET_NO":999,"REV_AT_EPOCH":13834,"BSTAR":1.991246e-5,"MEAN_MOTION_DOT":2.31e-6,"MEAN_MOTION_DDOT":0}]
